{
"type": "FeatureCollection",
"name": "geneva_communes_boundaries",
"crs": { "type": "name", "properties": { "name": "urn:ogc:def:crs:OGC:1.3:CRS84" } },
"features": [
{ "type": "Feature", "properties": { "COMMUNE_NAME": "Aire-la-Ville" }, "geometry": { "type": "MultiPolygon", "coordinates": [ [ [ [ 6.0671, 46.1921, 393.8496 ], [ 6.0583, 46.1932, 368.0 ], [ 6.0413, 46.2, 375.5695 ], [ 6.0371, 46.1965, 370.0334 ], [ 6.04, 46.1901, 377.8535 ], [ 6.0375, 46.1864, 427.1115 ], [ 6.0464, 46.1824, 415.2791 ], [ 6.0534, 46.1847, 404.2726 ], [ 6.0585, 46.1818, 408.5079 ], [ 6.0613, 46.1826, 404.764 ], [ 6.0626, 46.1869, 400.4268 ], [ 6.0671, 46.1921, 393.8496 ] ] ] ] } },
{ "type": "Feature", "properties": { "COMMUNE_NAME": "Anières" }, "geometry": { "type": "MultiPolygon", "coordinates": [ [ [ [ 6.2431, 46.2844, 421.3031 ], [ 6.2452, 46.288, 422.162 ], [ 6.2396, 46.2921, 385.3374 ], [ 6.2308, 46.2865, 382.4574 ], [ 6.2205, 46.2729, 395.4377 ], [ 6.2299, 46.2681, 431.0858 ], [ 6.2369, 46.2687, 432.4073 ], [ 6.2441, 46.2647, 433.6821 ], [ 6.2493, 46.2647, 430.0537 ], [ 6.2388, 46.2753, 424.8973 ], [ 6.2387, 46.2823, 422.5246 ], [ 6.2431, 46.2844, 421.3031 ] ] ] ] } },
{ "type": "Feature", "properties": { "COMMUNE_NAME": "Avully" }, "geometry": { "type": "MultiPolygon", "coordinates": [ [ [ [ 6.027, 46.1639, 435.3353 ], [ 6.0255, 46.1693, 432.8538 ], [ 6.0204, 46.1734, 432.7859 ], [ 6.0205, 46.1775, 385.6812 ], [ 6.0101, 46.1766, 370.9671 ], [ 6.0003, 46.1791, 370.4461 ], [ 5.9969, 46.1738, 366.4245 ], [ 5.992, 46.1747, 351.2127 ], [ 5.9894, 46.1734, 348.4922 ], [ 5.9877, 46.1685, 401.2507 ], [ 5.9821, 46.1621, 368.8596 ], [ 5.9854, 46.1599, 390.7896 ], [ 5.9909, 46.1598, 396.4465 ], [ 5.9978, 46.1645, 422.6588 ], [ 6.0015, 46.1651, 422.1966 ], [ 6.0094, 46.1631, 427.8578 ], [ 6.0105, 46.1576, 427.629 ], [ 6.027, 46.1639, 435.3353 ] ] ] ] } },
{ "type": "Feature", "properties": { "COMMUNE_NAME": "Avusy" }, "geometry": { "type": "MultiPolygon", "coordinates": [ [ [ [ 6.0369, 46.1368, 476.6014 ], [ 6.0297, 46.1411, 444.7626 ], [ 6.0392, 46.1477, 445.15 ], [ 6.0346, 46.1511, 445.113 ], [ 6.0225, 46.1546, 437.4902 ], [ 6.026, 46.1585, 437.5474 ], [ 6.027, 46.1639, 435.3353 ], [ 6.0056, 46.156, 427.0451 ], [ 5.9919, 46.1527, 417.9051 ], [ 5.9883, 46.15, 411.412 ], [ 5.9852, 46.1425, 366.4169 ], [ 5.9935, 46.1438, 376.7147 ], [ 6.0179, 46.1423, 422.9593 ], [ 6.0354, 46.1362, 458.8347 ], [ 6.0369, 46.1368, 476.6014 ] ] ] ] } },
{ "type": "Feature", "properties": { "COMMUNE_NAME": "Bardonnex" }, "geometry": { "type": "MultiPolygon", "coordinates": [ [ [ [ 6.1354, 46.1413, 488.2048 ], [ 6.1477, 46.1473, 461.4864 ], [ 6.1435, 46.1505, 457.9833 ], [ 6.1435, 46.1558, 443.4431 ], [ 6.1287, 46.1513, 471.1862 ], [ 6.113, 46.1562, 460.3577 ], [ 6.1079, 46.1545, 462.6391 ], [ 6.1033, 46.1554, 455.6276 ], [ 6.1008, 46.1522, 454.3731 ], [ 6.093, 46.1496, 454.3843 ], [ 6.0978, 46.1454, 450.1481 ], [ 6.1266, 46.1405, 479.8992 ], [ 6.1354, 46.1413, 488.2048 ] ] ] ] } },
{ "type": "Feature", "properties": { "COMMUNE_NAME": "Bellevue" }, "geometry": { "type": "MultiPolygon", "coordinates": [ [ [ [ 6.1291, 46.2509, 404.2375 ], [ 6.1304, 46.2475, 414.6801 ], [ 6.1333, 46.2458, 427.7062 ], [ 6.1449, 46.2505, 396.0978 ], [ 6.1573, 46.2463, 368.0 ], [ 6.1575, 46.2511, 368.0 ], [ 6.1605, 46.2552, 368.0 ], [ 6.1481, 46.2608, 414.7639 ], [ 6.145, 46.2731, 418.1733 ], [ 6.1243, 46.261, 420.3313 ], [ 6.1291, 46.2509, 404.2375 ] ] ] ] } },
{ "type": "Feature", "properties": { "COMMUNE_NAME": "Bernex" }, "geometry": { "type": "MultiPolygon", "coordinates": [ [ [ [ 6.0811, 46.1509, 436.5038 ], [ 6.0837, 46.1586, 412.6476 ], [ 6.0893, 46.1639, 408.0934 ], [ 6.0828, 46.1692, 414.9661 ], [ 6.0826, 46.173, 447.0058 ], [ 6.0865, 46.1767, 430.8685 ], [ 6.0949, 46.1789, 428.7361 ], [ 6.095, 46.1834, 430.9066 ], [ 6.0913, 46.1857, 420.0135 ], [ 6.0904, 46.1883, 419.1853 ], [ 6.0932, 46.1912, 390.0877 ], [ 6.0939, 46.1954, 386.3732 ], [ 6.0966, 46.1987, 398.2682 ], [ 6.0971, 46.2047, 419.0641 ], [ 6.0999, 46.208, 417.7499 ], [ 6.0975, 46.2109, 413.392 ], [ 6.0919, 46.2087, 386.0768 ], [ 6.0854, 46.2022, 397.6997 ], [ 6.078, 46.2008, 395.0921 ], [ 6.0746, 46.1954, 405.9986 ], [ 6.0671, 46.1921, 393.8496 ], [ 6.063, 46.1875, 411.4983 ], [ 6.0622, 46.1833, 404.764 ], [ 6.0585, 46.1818, 408.5079 ], [ 6.0577, 46.1771, 418.3196 ], [ 6.0464, 46.1707, 445.7376 ], [ 6.0512, 46.1656, 451.6904 ], [ 6.0515, 46.1603, 453.1971 ], [ 6.0546, 46.1571, 446.7913 ], [ 6.0558, 46.1525, 432.8439 ], [ 6.0668, 46.1584, 417.4649 ], [ 6.0777, 46.1509, 425.2555 ], [ 6.0811, 46.1509, 436.5038 ] ] ] ] } },
{ "type": "Feature", "properties": { "COMMUNE_NAME": "Carouge" }, "geometry": { "type": "MultiPolygon", "coordinates": [ [ [ [ 6.1326, 46.1875, 385.3305 ], [ 6.1372, 46.1755, 403.8452 ], [ 6.1433, 46.1714, 423.9428 ], [ 6.1493, 46.1756, 418.7164 ], [ 6.1546, 46.1765, 418.0256 ], [ 6.1577, 46.1787, 385.202 ], [ 6.1585, 46.184, 417.2121 ], [ 6.1573, 46.1856, 425.7516 ], [ 6.1392, 46.1896, 383.6398 ], [ 6.1326, 46.1875, 385.3305 ] ] ] ] } },
{ "type": "Feature", "properties": { "COMMUNE_NAME": "Cartigny" }, "geometry": { "type": "MultiPolygon", "coordinates": [ [ [ [ 6.0375, 46.1864, 427.1115 ], [ 6.0205, 46.1775, 385.6812 ], [ 6.0204, 46.1734, 432.7859 ], [ 6.0255, 46.1693, 432.8538 ], [ 6.027, 46.1639, 435.3353 ], [ 6.0482, 46.1712, 443.8541 ], [ 6.0586, 46.1784, 418.3196 ], [ 6.0585, 46.1818, 408.5079 ], [ 6.0547, 46.1844, 404.2726 ], [ 6.0464, 46.1824, 415.2791 ], [ 6.0375, 46.1864, 427.1115 ] ] ] ] } },
{ "type": "Feature", "properties": { "COMMUNE_NAME": "Chancy" }, "geometry": { "type": "MultiPolygon", "coordinates": [ [ [ [ 5.9561, 46.1321, 341.9096 ], [ 5.9573, 46.1279, 365.6605 ], [ 5.9803, 46.1358, 422.7776 ], [ 5.989, 46.1508, 417.4065 ], [ 5.9938, 46.1535, 417.8465 ], [ 6.0105, 46.1576, 427.629 ], [ 6.0099, 46.1625, 427.9195 ], [ 6.0004, 46.1652, 423.2471 ], [ 5.9909, 46.1598, 396.4465 ], [ 5.9854, 46.1599, 390.7896 ], [ 5.9821, 46.1621, 368.8596 ], [ 5.9677, 46.1467, 341.5581 ], [ 5.9675, 46.1387, 355.9875 ], [ 5.9561, 46.1321, 341.9096 ] ] ] ] } },
{ "type": "Feature", "properties": { "COMMUNE_NAME": "Choulex" }, "geometry": { "type": "MultiPolygon", "coordinates": [ [ [ [ 6.2034, 46.2354, 464.2407 ], [ 6.2115, 46.2294, 457.3746 ], [ 6.221, 46.227, 455.7254 ], [ 6.2232, 46.2144, 430.0078 ], [ 6.2299, 46.2184, 428.9846 ], [ 6.2361, 46.218, 430.0509 ], [ 6.247, 46.2282, 440.6336 ], [ 6.2409, 46.2301, 427.743 ], [ 6.2403, 46.2358, 428.132 ], [ 6.2377, 46.2377, 428.4915 ], [ 6.2268, 46.2328, 458.6493 ], [ 6.2207, 46.2342, 458.4012 ], [ 6.2191, 46.2369, 457.6812 ], [ 6.2159, 46.2381, 452.8633 ], [ 6.2034, 46.2354, 464.2407 ] ] ] ] } },
{ "type": "Feature", "properties": { "COMMUNE_NAME": "Chêne-Bougeries" }, "geometry": { "type": "MultiPolygon", "coordinates": [ [ [ [ 6.2052, 46.2089, 427.1288 ], [ 6.1996, 46.2089, 429.937 ], [ 6.1972, 46.2068, 428.0786 ], [ 6.1904, 46.2054, 430.3544 ], [ 6.1847, 46.206, 430.1449 ], [ 6.1791, 46.2026, 425.0755 ], [ 6.1772, 46.1937, 422.8196 ], [ 6.1715, 46.1895, 426.7438 ], [ 6.1758, 46.1825, 421.6673 ], [ 6.1749, 46.1756, 407.4948 ], [ 6.1776, 46.1755, 413.3947 ], [ 6.1881, 46.1803, 392.8989 ], [ 6.1875, 46.1854, 411.6554 ], [ 6.191, 46.1938, 417.933 ], [ 6.1957, 46.1963, 422.1838 ], [ 6.2008, 46.2025, 427.8214 ], [ 6.2052, 46.2044, 431.6412 ], [ 6.2052, 46.2089, 427.1288 ] ] ] ] } },
{ "type": "Feature", "properties": { "COMMUNE_NAME": "Chêne-Bourg" }, "geometry": { "type": "MultiPolygon", "coordinates": [ [ [ [ 6.1908, 46.191, 406.624 ], [ 6.2005, 46.191, 422.9807 ], [ 6.2031, 46.1924, 425.1048 ], [ 6.2094, 46.2015, 427.1679 ], [ 6.2077, 46.2095, 427.1393 ], [ 6.2052, 46.2089, 427.1288 ], [ 6.2052, 46.2044, 431.6412 ], [ 6.2008, 46.2025, 427.8214 ], [ 6.1957, 46.1963, 422.1838 ], [ 6.191, 46.1938, 417.933 ], [ 6.1908, 46.191, 406.624 ] ] ] ] } },
{ "type": "Feature", "properties": { "COMMUNE_NAME": "Collex-Bossy" }, "geometry": { "type": "MultiPolygon", "coordinates": [ [ [ [ 6.1045, 46.2391, 420.5843 ], [ 6.107, 46.2377, 418.5762 ], [ 6.1117, 46.2406, 416.4345 ], [ 6.1155, 46.2403, 415.1456 ], [ 6.1291, 46.2509, 404.2375 ], [ 6.1243, 46.261, 420.3313 ], [ 6.145, 46.2731, 418.1733 ], [ 6.1453, 46.2791, 418.4123 ], [ 6.1348, 46.2835, 423.4857 ], [ 6.1372, 46.2908, 437.7237 ], [ 6.1247, 46.297, 465.6035 ], [ 6.125, 46.3006, 475.4357 ], [ 6.1233, 46.3032, 478.2435 ], [ 6.1239, 46.3111, 464.5779 ], [ 6.1292, 46.3175, 474.5225 ], [ 6.1298, 46.3206, 467.8069 ], [ 6.1424, 46.3351, 465.7022 ], [ 6.1416, 46.3391, 468.4096 ], [ 6.1518, 46.3437, 469.3065 ], [ 6.1555, 46.3483, 468.614 ], [ 6.1613, 46.3508, 468.0858 ], [ 6.1605, 46.3558, 470.5504 ], [ 6.1492, 46.3431, 470.8335 ], [ 6.1403, 46.3399, 466.6024 ], [ 6.1377, 46.3331, 464.6662 ], [ 6.1244, 46.3173, 468.9868 ], [ 6.1191, 46.3077, 454.9778 ], [ 6.1195, 46.2953, 460.741 ], [ 6.1024, 46.2848, 490.0117 ], [ 6.116, 46.2657, 431.6737 ], [ 6.1201, 46.2636, 426.0665 ], [ 6.1225, 46.2533, 409.8736 ], [ 6.1159, 46.2444, 414.2979 ], [ 6.1045, 46.2391, 420.5843 ] ] ] ] } },
{ "type": "Feature", "properties": { "COMMUNE_NAME": "Collonge-Bellerive" }, "geometry": { "type": "MultiPolygon", "coordinates": [ [ [ [ 6.2172, 46.2378, 452.8633 ], [ 6.22, 46.2467, 432.4744 ], [ 6.2248, 46.2514, 436.1455 ], [ 6.2301, 46.2531, 443.5113 ], [ 6.2308, 46.2564, 442.8629 ], [ 6.2132, 46.2668, 379.4673 ], [ 6.2021, 46.2641, 372.9186 ], [ 6.1981, 46.2563, 390.3723 ], [ 6.1976, 46.2377, 424.3862 ], [ 6.2034, 46.2354, 464.2407 ], [ 6.2172, 46.2378, 452.8633 ] ] ] ] } },
{ "type": "Feature", "properties": { "COMMUNE_NAME": "Cologny" }, "geometry": { "type": "MultiPolygon", "coordinates": [ [ [ [ 6.1996, 46.2089, 429.937 ], [ 6.1972, 46.2107, 432.7877 ], [ 6.1927, 46.2217, 492.8353 ], [ 6.2065, 46.2343, 467.2763 ], [ 6.1976, 46.2377, 424.3862 ], [ 6.1816, 46.2164, 448.1889 ], [ 6.1767, 46.2134, 414.6925 ], [ 6.1741, 46.2094, 402.4908 ], [ 6.1757, 46.2095, 415.2111 ], [ 6.1791, 46.2026, 425.0755 ], [ 6.1847, 46.206, 430.1449 ], [ 6.1961, 46.2065, 426.822 ], [ 6.1996, 46.2089, 429.937 ] ] ] ] } },
{ "type": "Feature", "properties": { "COMMUNE_NAME": "Confignon" }, "geometry": { "type": "MultiPolygon", "coordinates": [ [ [ [ 6.089, 46.1641, 408.0934 ], [ 6.0948, 46.163, 411.672 ], [ 6.1004, 46.1655, 405.618 ], [ 6.1045, 46.1653, 411.6352 ], [ 6.11, 46.1685, 402.5701 ], [ 6.105, 46.171, 401.2805 ], [ 6.095, 46.1834, 430.9066 ], [ 6.0945, 46.1784, 417.4056 ], [ 6.0865, 46.1767, 430.8685 ], [ 6.0824, 46.1725, 447.0058 ], [ 6.0828, 46.1692, 414.9661 ], [ 6.089, 46.1641, 408.0934 ] ] ], [ [ [ 6.0933, 46.1843, 424.099 ], [ 6.095, 46.1834, 430.9066 ], [ 6.0965, 46.1867, 423.4983 ], [ 6.0928, 46.1905, 390.0877 ], [ 6.0904, 46.1877, 419.1853 ], [ 6.0933, 46.1843, 424.099 ] ] ] ] } },
{ "type": "Feature", "properties": { "COMMUNE_NAME": "Corsier" }, "geometry": { "type": "MultiPolygon", "coordinates": [ [ [ [ 6.2493, 46.2647, 430.0537 ], [ 6.2441, 46.2647, 433.6821 ], [ 6.2369, 46.2687, 432.4073 ], [ 6.2299, 46.2681, 431.0858 ], [ 6.2205, 46.2729, 395.4377 ], [ 6.2124, 46.2669, 379.4673 ], [ 6.2304, 46.2569, 442.8629 ], [ 6.2438, 46.2598, 429.9561 ], [ 6.2488, 46.2583, 438.8896 ], [ 6.2517, 46.2622, 434.2904 ], [ 6.2493, 46.2647, 430.0537 ] ] ] ] } },
{ "type": "Feature", "properties": { "COMMUNE_NAME": "Céligny" }, "geometry": { "type": "MultiPolygon", "coordinates": [ [ [ [ 6.1869, 46.3449, 424.1203 ], [ 6.188, 46.3454, 424.1203 ], [ 6.1778, 46.3515, 462.4228 ], [ 6.177, 46.3498, 458.9158 ], [ 6.1724, 46.3484, 471.084 ], [ 6.1686, 46.3438, 470.1639 ], [ 6.1742, 46.3429, 467.1985 ], [ 6.1768, 46.3472, 456.9422 ], [ 6.1821, 46.3443, 439.8294 ], [ 6.1869, 46.3449, 424.1203 ] ] ], [ [ [ 6.2097, 46.341, 368.0 ], [ 6.2141, 46.3541, 369.379 ], [ 6.2028, 46.356, 427.6785 ], [ 6.1988, 46.3605, 439.8859 ], [ 6.1876, 46.3615, 453.5002 ], [ 6.1832, 46.3645, 477.7809 ], [ 6.1799, 46.3647, 477.3277 ], [ 6.1736, 46.3581, 470.6964 ], [ 6.1742, 46.3554, 478.6131 ], [ 6.1785, 46.3532, 459.398 ], [ 6.1957, 46.3484, 410.3236 ], [ 6.197, 46.3463, 394.3234 ], [ 6.1946, 46.3447, 405.0011 ], [ 6.1994, 46.3421, 387.9506 ], [ 6.205, 46.3399, 382.6701 ], [ 6.2097, 46.341, 368.0 ] ] ] ] } },
{ "type": "Feature", "properties": { "COMMUNE_NAME": "Dardagny" }, "geometry": { "type": "MultiPolygon", "coordinates": [ [ [ [ 5.9733, 46.1562, 343.0498 ], [ 5.9647, 46.1447, 337.9603 ], [ 5.9665, 46.1383, 355.9875 ], [ 5.9645, 46.1372, 334.3358 ], [ 5.967, 46.1383, 355.9875 ], [ 5.9679, 46.1396, 344.7876 ], [ 5.9677, 46.1467, 341.5581 ], [ 5.9875, 46.1682, 401.2507 ], [ 5.9894, 46.1734, 348.4922 ], [ 5.992, 46.1747, 351.2127 ], [ 5.9969, 46.1738, 366.4245 ], [ 6.0003, 46.1791, 370.4461 ], [ 6.0119, 46.1765, 378.3419 ], [ 6.0181, 46.1782, 415.1614 ], [ 6.0193, 46.1854, 363.8407 ], [ 6.013, 46.196, 422.09 ], [ 6.0135, 46.1998, 424.7516 ], [ 6.0063, 46.2058, 453.868 ], [ 6.0055, 46.2108, 473.125 ], [ 6.0066, 46.2152, 456.7727 ], [ 6.0108, 46.2214, 463.9089 ], [ 6.0075, 46.2241, 426.1773 ], [ 5.9938, 46.2204, 435.7383 ], [ 5.9927, 46.2172, 438.784 ], [ 5.9744, 46.2147, 466.7213 ], [ 5.9714, 46.2023, 453.5152 ], [ 5.9642, 46.198, 463.4386 ], [ 5.9637, 46.197, 473.2631 ], [ 5.9932, 46.1848, 404.1252 ], [ 5.9903, 46.1749, 348.978 ], [ 5.9822, 46.1722, 345.5 ], [ 5.9733, 46.1562, 343.0498 ] ] ] ] } },
{ "type": "Feature", "properties": { "COMMUNE_NAME": "Genthod" }, "geometry": { "type": "MultiPolygon", "coordinates": [ [ [ [ 6.1605, 46.2552, 368.0 ], [ 6.163, 46.2591, 368.0 ], [ 6.1713, 46.265, 368.0 ], [ 6.1738, 46.2699, 368.0 ], [ 6.1627, 46.2737, 403.0535 ], [ 6.1558, 46.2729, 416.4868 ], [ 6.1503, 46.2748, 423.7404 ], [ 6.145, 46.2731, 418.1733 ], [ 6.1481, 46.2608, 414.7639 ], [ 6.1605, 46.2552, 368.0 ] ] ] ] } },
{ "type": "Feature", "properties": { "COMMUNE_NAME": "Grand-Saconnex" }, "geometry": { "type": "MultiPolygon", "coordinates": [ [ [ [ 6.1291, 46.2509, 404.2375 ], [ 6.1155, 46.2403, 415.1456 ], [ 6.1117, 46.2406, 416.4345 ], [ 6.107, 46.2377, 418.5762 ], [ 6.1157, 46.2256, 442.97 ], [ 6.1225, 46.2223, 452.4235 ], [ 6.1329, 46.2275, 450.1327 ], [ 6.1368, 46.2313, 451.3453 ], [ 6.1361, 46.2341, 458.9062 ], [ 6.1394, 46.2368, 451.8333 ], [ 6.1291, 46.2509, 404.2375 ] ] ] ] } },
{ "type": "Feature", "properties": { "COMMUNE_NAME": "Gy" }, "geometry": { "type": "MultiPolygon", "coordinates": [ [ [ [ 6.2949, 46.2646, 470.1548 ], [ 6.2782, 46.2516, 475.7329 ], [ 6.2692, 46.2485, 462.6559 ], [ 6.2645, 46.2498, 462.2043 ], [ 6.2517, 46.2622, 434.2904 ], [ 6.2488, 46.2583, 438.8896 ], [ 6.255, 46.2558, 447.3406 ], [ 6.2546, 46.2528, 450.0887 ], [ 6.2571, 46.2515, 457.1124 ], [ 6.2596, 46.2463, 460.0729 ], [ 6.2646, 46.2455, 459.9099 ], [ 6.2685, 46.2479, 463.5853 ], [ 6.2748, 46.2458, 467.0619 ], [ 6.2896, 46.2508, 473.6616 ], [ 6.2949, 46.258, 471.4924 ], [ 6.2949, 46.2646, 470.1548 ] ] ] ] } },
{ "type": "Feature", "properties": { "COMMUNE_NAME": "Hermance" }, "geometry": { "type": "MultiPolygon", "coordinates": [ [ [ [ 6.2469, 46.3016, 395.9398 ], [ 6.2396, 46.2921, 385.3374 ], [ 6.2452, 46.288, 422.162 ], [ 6.2431, 46.2844, 421.3031 ], [ 6.2511, 46.2882, 417.4111 ], [ 6.2519, 46.2917, 412.4536 ], [ 6.2469, 46.3016, 395.9398 ] ] ] ] } },
{ "type": "Feature", "properties": { "COMMUNE_NAME": "Jussy" }, "geometry": { "type": "MultiPolygon", "coordinates": [ [ [ [ 6.2949, 46.258, 471.4924 ], [ 6.2871, 46.2495, 479.9631 ], [ 6.2748, 46.2458, 467.0619 ], [ 6.2685, 46.2479, 463.5853 ], [ 6.2646, 46.2455, 459.9099 ], [ 6.2596, 46.2463, 460.0729 ], [ 6.2569, 46.2421, 461.6703 ], [ 6.2464, 46.2389, 449.0971 ], [ 6.2446, 46.2364, 447.3236 ], [ 6.2569, 46.224, 462.3715 ], [ 6.2655, 46.2262, 472.3028 ], [ 6.2718, 46.2253, 486.0966 ], [ 6.278, 46.2273, 498.0584 ], [ 6.2935, 46.2283, 520.7831 ], [ 6.2962, 46.227, 510.4362 ], [ 6.3092, 46.2425, 515.5815 ], [ 6.3085, 46.255, 507.2474 ], [ 6.2949, 46.258, 471.4924 ] ] ] ] } },
{ "type": "Feature", "properties": { "COMMUNE_NAME": "Laconnex" }, "geometry": { "type": "MultiPolygon", "coordinates": [ [ [ [ 6.0392, 46.1477, 445.15 ], [ 6.0463, 46.1519, 458.2209 ], [ 6.0514, 46.1509, 455.0748 ], [ 6.0558, 46.1525, 432.8439 ], [ 6.0546, 46.1571, 446.7913 ], [ 6.0515, 46.1603, 453.1971 ], [ 6.0512, 46.1656, 451.6904 ], [ 6.0464, 46.1707, 445.7376 ], [ 6.027, 46.1639, 435.3353 ], [ 6.026, 46.1585, 437.5474 ], [ 6.0225, 46.1551, 437.4902 ], [ 6.0346, 46.1511, 445.113 ], [ 6.0392, 46.1477, 445.15 ] ] ] ] } },
{ "type": "Feature", "properties": { "COMMUNE_NAME": "Lancy" }, "geometry": { "type": "MultiPolygon", "coordinates": [ [ [ [ 6.1326, 46.1875, 385.3305 ], [ 6.1328, 46.1944, 376.541 ], [ 6.1243, 46.1966, 415.6968 ], [ 6.1179, 46.1961, 423.5234 ], [ 6.115, 46.2033, 391.1178 ], [ 6.1094, 46.1962, 416.5777 ], [ 6.1181, 46.1771, 396.8397 ], [ 6.1156, 46.1744, 400.0545 ], [ 6.119, 46.1724, 398.7746 ], [ 6.1315, 46.1708, 408.4636 ], [ 6.1368, 46.1681, 421.9031 ], [ 6.1441, 46.1696, 421.4513 ], [ 6.1372, 46.1755, 403.8452 ], [ 6.1326, 46.1875, 385.3305 ] ] ] ] } },
{ "type": "Feature", "properties": { "COMMUNE_NAME": "Meinier" }, "geometry": { "type": "MultiPolygon", "coordinates": [ [ [ [ 6.247, 46.2282, 440.6336 ], [ 6.2516, 46.2287, 453.7108 ], [ 6.2446, 46.2374, 443.2699 ], [ 6.2569, 46.2421, 461.6703 ], [ 6.2596, 46.2463, 460.0729 ], [ 6.2571, 46.2515, 457.1124 ], [ 6.2546, 46.2528, 450.0887 ], [ 6.255, 46.2558, 447.3406 ], [ 6.2446, 46.2598, 431.4926 ], [ 6.2304, 46.2569, 442.8629 ], [ 6.2306, 46.2536, 443.5113 ], [ 6.2248, 46.2514, 436.1455 ], [ 6.22, 46.2467, 432.4744 ], [ 6.2172, 46.2378, 452.8633 ], [ 6.2207, 46.2342, 458.4012 ], [ 6.2268, 46.2328, 458.6493 ], [ 6.2353, 46.2376, 428.5974 ], [ 6.2381, 46.2375, 428.9599 ], [ 6.2403, 46.2358, 428.132 ], [ 6.2409, 46.2301, 427.743 ], [ 6.247, 46.2282, 440.6336 ] ] ] ] } },
{ "type": "Feature", "properties": { "COMMUNE_NAME": "Meyrin" }, "geometry": { "type": "MultiPolygon", "coordinates": [ [ [ [ 6.0881, 46.247, 424.337 ], [ 6.0705, 46.2417, 428.8616 ], [ 6.062, 46.2449, 461.0872 ], [ 6.05, 46.2346, 437.5494 ], [ 6.0625, 46.2288, 416.9134 ], [ 6.0764, 46.2184, 434.1095 ], [ 6.0874, 46.2214, 435.4059 ], [ 6.092, 46.2207, 429.7412 ], [ 6.0947, 46.2237, 425.9474 ], [ 6.1079, 46.2203, 425.4601 ], [ 6.1154, 46.2236, 445.9087 ], [ 6.1157, 46.2257, 442.97 ], [ 6.1121, 46.232, 425.7779 ], [ 6.107, 46.2377, 418.5762 ], [ 6.0881, 46.247, 424.337 ] ] ] ] } },
{ "type": "Feature", "properties": { "COMMUNE_NAME": "Onex" }, "geometry": { "type": "MultiPolygon", "coordinates": [ [ [ [ 6.0928, 46.1905, 390.0877 ], [ 6.0965, 46.1867, 423.4983 ], [ 6.095, 46.1834, 430.9066 ], [ 6.0981, 46.1812, 430.1038 ], [ 6.1002, 46.1759, 395.3395 ], [ 6.1044, 46.1732, 401.5841 ], [ 6.1156, 46.1744, 400.0545 ], [ 6.118, 46.1766, 397.5512 ], [ 6.1094, 46.1962, 416.5777 ], [ 6.1029, 46.1911, 418.3122 ], [ 6.0936, 46.1922, 375.4192 ], [ 6.0928, 46.1905, 390.0877 ] ] ] ] } },
{ "type": "Feature", "properties": { "COMMUNE_NAME": "Perly-Certoux" }, "geometry": { "type": "MultiPolygon", "coordinates": [ [ [ [ 6.093, 46.1496, 454.3843 ], [ 6.1022, 46.1533, 454.3731 ], [ 6.1056, 46.1596, 440.8229 ], [ 6.1027, 46.1649, 409.4134 ], [ 6.1004, 46.1655, 405.618 ], [ 6.0945, 46.163, 411.672 ], [ 6.0906, 46.1644, 406.8856 ], [ 6.0837, 46.1586, 412.6476 ], [ 6.0811, 46.1509, 436.5038 ], [ 6.0917, 46.1508, 449.8852 ], [ 6.093, 46.1496, 454.3843 ] ] ] ] } },
{ "type": "Feature", "properties": { "COMMUNE_NAME": "Plan-les-Ouates" }, "geometry": { "type": "MultiPolygon", "coordinates": [ [ [ [ 6.1435, 46.1558, 443.4431 ], [ 6.145, 46.1655, 420.0908 ], [ 6.1441, 46.1696, 421.4513 ], [ 6.1368, 46.1681, 421.9031 ], [ 6.1315, 46.1708, 408.4636 ], [ 6.119, 46.1724, 398.7746 ], [ 6.1156, 46.1744, 400.0545 ], [ 6.1044, 46.1732, 401.5841 ], [ 6.105, 46.171, 401.2805 ], [ 6.11, 46.1685, 402.5701 ], [ 6.1027, 46.1649, 409.4134 ], [ 6.1056, 46.1596, 440.8229 ], [ 6.1033, 46.1554, 455.6276 ], [ 6.1079, 46.1545, 462.6391 ], [ 6.113, 46.1562, 460.3577 ], [ 6.1287, 46.1513, 471.1862 ], [ 6.1435, 46.1558, 443.4431 ] ] ] ] } },
{ "type": "Feature", "properties": { "COMMUNE_NAME": "Pregny-Chambésy" }, "geometry": { "type": "MultiPolygon", "coordinates": [ [ [ [ 6.1333, 46.2458, 427.7062 ], [ 6.1394, 46.2372, 443.885 ], [ 6.1357, 46.2335, 452.6984 ], [ 6.1368, 46.2313, 451.3453 ], [ 6.1526, 46.2279, 368.0 ], [ 6.1573, 46.2386, 368.0 ], [ 6.1573, 46.2463, 368.0 ], [ 6.1449, 46.2505, 396.0978 ], [ 6.1333, 46.2458, 427.7062 ] ] ] ] } },
{ "type": "Feature", "properties": { "COMMUNE_NAME": "Presinge" }, "geometry": { "type": "MultiPolygon", "coordinates": [ [ [ [ 6.2945, 46.2249, 509.0402 ], [ 6.2962, 46.227, 510.4362 ], [ 6.2935, 46.2283, 520.7831 ], [ 6.2776, 46.2273, 498.0584 ], [ 6.271, 46.2252, 486.0966 ], [ 6.2655, 46.2262, 472.3028 ], [ 6.2569, 46.224, 462.3715 ], [ 6.2516, 46.2287, 453.7108 ], [ 6.247, 46.2282, 440.6336 ], [ 6.2387, 46.2206, 428.9331 ], [ 6.2502, 46.2187, 441.3656 ], [ 6.2505, 46.2156, 450.462 ], [ 6.2446, 46.2109, 443.1896 ], [ 6.2486, 46.2069, 447.4399 ], [ 6.2475, 46.2061, 445.1792 ], [ 6.249, 46.2061, 447.4399 ], [ 6.2764, 46.2152, 491.2406 ], [ 6.2945, 46.2249, 509.0402 ] ] ] ] } },
{ "type": "Feature", "properties": { "COMMUNE_NAME": "Puplinge" }, "geometry": { "type": "MultiPolygon", "coordinates": [ [ [ [ 6.2301, 46.2036, 432.1917 ], [ 6.2338, 46.206, 433.3397 ], [ 6.248, 46.2064, 445.1792 ], [ 6.2446, 46.2109, 443.1896 ], [ 6.2505, 46.2156, 450.462 ], [ 6.2502, 46.2187, 441.3656 ], [ 6.2387, 46.2206, 428.9331 ], [ 6.2359, 46.2179, 429.2772 ], [ 6.2299, 46.2184, 428.9846 ], [ 6.2232, 46.2144, 430.0078 ], [ 6.2208, 46.212, 428.5629 ], [ 6.2222, 46.2089, 428.2079 ], [ 6.2262, 46.2054, 430.0146 ], [ 6.2275, 46.2019, 432.2639 ], [ 6.2301, 46.2036, 432.1917 ] ] ] ] } },
{ "type": "Feature", "properties": { "COMMUNE_NAME": "Russin" }, "geometry": { "type": "MultiPolygon", "coordinates": [ [ [ [ 6.0413, 46.2, 375.5695 ], [ 6.0267, 46.2011, 415.252 ], [ 6.0192, 46.2048, 441.1913 ], [ 6.0198, 46.207, 450.4077 ], [ 6.018, 46.2112, 482.1176 ], [ 6.0146, 46.2091, 467.4938 ], [ 6.0063, 46.2094, 469.0217 ], [ 6.0065, 46.2053, 448.2592 ], [ 6.0135, 46.1998, 424.7516 ], [ 6.013, 46.196, 422.09 ], [ 6.0193, 46.1854, 363.8407 ], [ 6.0176, 46.1802, 355.4839 ], [ 6.0191, 46.1779, 415.1614 ], [ 6.0222, 46.1779, 365.6966 ], [ 6.0266, 46.1816, 353.6186 ], [ 6.0375, 46.1864, 427.1115 ], [ 6.04, 46.1901, 377.8535 ], [ 6.0372, 46.1971, 368.9892 ], [ 6.0413, 46.2, 375.5695 ] ] ] ] } },
{ "type": "Feature", "properties": { "COMMUNE_NAME": "Satigny" }, "geometry": { "type": "MultiPolygon", "coordinates": [ [ [ [ 6.0424, 46.2331, 456.7507 ], [ 6.0345, 46.2372, 443.7205 ], [ 6.0167, 46.2318, 434.0831 ], [ 6.0059, 46.2246, 426.1773 ], [ 6.0108, 46.2214, 463.9089 ], [ 6.0066, 46.2152, 456.7727 ], [ 6.0056, 46.2102, 469.0217 ], [ 6.0146, 46.2091, 467.4938 ], [ 6.018, 46.2112, 482.1176 ], [ 6.0198, 46.207, 450.4077 ], [ 6.0192, 46.2048, 441.1913 ], [ 6.0267, 46.2011, 415.252 ], [ 6.0452, 46.1991, 376.2889 ], [ 6.0583, 46.1932, 368.0 ], [ 6.0671, 46.1921, 393.8496 ], [ 6.0746, 46.1954, 405.9986 ], [ 6.0767, 46.1996, 396.9182 ], [ 6.0802, 46.2021, 379.5307 ], [ 6.0788, 46.2043, 379.7543 ], [ 6.0794, 46.2081, 401.43 ], [ 6.0766, 46.2103, 429.7168 ], [ 6.0794, 46.2141, 442.0252 ], [ 6.0764, 46.2184, 434.1095 ], [ 6.0628, 46.2286, 422.6165 ], [ 6.0523, 46.2336, 433.2646 ], [ 6.05, 46.2346, 437.5494 ], [ 6.0469, 46.2319, 439.8225 ], [ 6.0424, 46.2331, 456.7507 ] ] ] ] } },
{ "type": "Feature", "properties": { "COMMUNE_NAME": "Soral" }, "geometry": { "type": "MultiPolygon", "coordinates": [ [ [ [ 6.0777, 46.1509, 425.2555 ], [ 6.0662, 46.1584, 417.4649 ], [ 6.0549, 46.152, 447.633 ], [ 6.0426, 46.1506, 450.2 ], [ 6.0297, 46.1411, 444.7626 ], [ 6.0369, 46.1368, 476.6014 ], [ 6.0478, 46.1409, 460.6708 ], [ 6.0491, 46.1478, 458.422 ], [ 6.057, 46.1511, 421.6948 ], [ 6.0777, 46.1509, 425.2555 ] ] ] ] } },
{ "type": "Feature", "properties": { "COMMUNE_NAME": "Thônex" }, "geometry": { "type": "MultiPolygon", "coordinates": [ [ [ [ 6.2275, 46.2019, 432.2639 ], [ 6.2208, 46.212, 428.5629 ], [ 6.2093, 46.2111, 427.5963 ], [ 6.2077, 46.2095, 427.1393 ], [ 6.2094, 46.2021, 428.26 ], [ 6.2083, 46.1994, 428.2447 ], [ 6.2016, 46.1913, 420.7117 ], [ 6.1908, 46.191, 406.624 ], [ 6.1875, 46.1854, 411.6554 ], [ 6.1881, 46.1803, 392.8989 ], [ 6.1888, 46.1797, 392.7662 ], [ 6.2275, 46.2019, 432.2639 ] ] ] ] } },
{ "type": "Feature", "properties": { "COMMUNE_NAME": "Troinex" }, "geometry": { "type": "MultiPolygon", "coordinates": [ [ [ [ 6.1769, 46.1595, 427.2727 ], [ 6.168, 46.1589, 422.941 ], [ 6.1619, 46.1625, 421.4261 ], [ 6.1604, 46.1654, 423.101 ], [ 6.1532, 46.1678, 421.3302 ], [ 6.145, 46.1678, 418.3245 ], [ 6.1433, 46.151, 458.707 ], [ 6.1477, 46.1473, 461.4864 ], [ 6.1528, 46.1519, 457.1622 ], [ 6.1769, 46.1595, 427.2727 ] ] ] ] } },
{ "type": "Feature", "properties": { "COMMUNE_NAME": "Vernier" }, "geometry": { "type": "MultiPolygon", "coordinates": [ [ [ [ 6.0936, 46.1922, 375.4192 ], [ 6.1029, 46.1911, 418.3122 ], [ 6.1094, 46.1962, 416.5777 ], [ 6.122, 46.2132, 418.6769 ], [ 6.1222, 46.2158, 429.0416 ], [ 6.1193, 46.2195, 443.1567 ], [ 6.1225, 46.2223, 452.4235 ], [ 6.1157, 46.2256, 442.97 ], [ 6.1152, 46.2233, 445.9087 ], [ 6.109, 46.2204, 428.6117 ], [ 6.0947, 46.2237, 425.9474 ], [ 6.092, 46.2207, 429.7412 ], [ 6.0874, 46.2214, 435.4059 ], [ 6.0764, 46.2184, 434.1095 ], [ 6.0794, 46.2141, 442.0252 ], [ 6.0766, 46.2103, 429.7168 ], [ 6.0794, 46.2081, 401.43 ], [ 6.0788, 46.2043, 379.7543 ], [ 6.0802, 46.2021, 379.5307 ], [ 6.0854, 46.2022, 397.6997 ], [ 6.095, 46.2107, 403.9207 ], [ 6.0998, 46.2093, 423.832 ], [ 6.0971, 46.2047, 419.0641 ], [ 6.0966, 46.1987, 398.2682 ], [ 6.0939, 46.1954, 386.3732 ], [ 6.0936, 46.1922, 375.4192 ] ] ] ] } },
{ "type": "Feature", "properties": { "COMMUNE_NAME": "Versoix" }, "geometry": { "type": "MultiPolygon", "coordinates": [ [ [ [ 6.145, 46.2731, 418.1733 ], [ 6.1503, 46.2748, 423.7404 ], [ 6.1558, 46.2729, 416.4868 ], [ 6.1627, 46.2737, 403.0535 ], [ 6.1738, 46.2699, 368.0 ], [ 6.1747, 46.2732, 368.0 ], [ 6.1717, 46.2833, 368.0 ], [ 6.1745, 46.2884, 368.0 ], [ 6.1743, 46.2946, 368.0 ], [ 6.1472, 46.3034, 437.3636 ], [ 6.1292, 46.3175, 474.5225 ], [ 6.1239, 46.3111, 464.5779 ], [ 6.1233, 46.3032, 478.2435 ], [ 6.125, 46.3006, 475.4357 ], [ 6.1247, 46.297, 465.6035 ], [ 6.1372, 46.2908, 437.7237 ], [ 6.1348, 46.2835, 423.4857 ], [ 6.1453, 46.2791, 418.4123 ], [ 6.145, 46.2731, 418.1733 ] ] ] ] } },
{ "type": "Feature", "properties": { "COMMUNE_NAME": "Veyrier" }, "geometry": { "type": "MultiPolygon", "coordinates": [ [ [ [ 6.1861, 46.1782, 393.8317 ], [ 6.1888, 46.1797, 392.7662 ], [ 6.1749, 46.1756, 407.4948 ], [ 6.1758, 46.1825, 421.6673 ], [ 6.1715, 46.1895, 426.7438 ], [ 6.1667, 46.186, 387.741 ], [ 6.1636, 46.1782, 414.5945 ], [ 6.1573, 46.1783, 385.202 ], [ 6.15, 46.1759, 415.6748 ], [ 6.1433, 46.1714, 423.9428 ], [ 6.145, 46.1678, 418.3245 ], [ 6.1532, 46.1678, 421.3302 ], [ 6.1604, 46.1654, 423.101 ], [ 6.1619, 46.1625, 421.4261 ], [ 6.168, 46.1589, 422.941 ], [ 6.1769, 46.1595, 427.2727 ], [ 6.1883, 46.1681, 415.6107 ], [ 6.1861, 46.1782, 393.8317 ] ] ] ] } },
{ "type": "Feature", "properties": { "COMMUNE_NAME": "Vandoeuvres" }, "geometry": { "type": "MultiPolygon", "coordinates": [ [ [ [ 6.2052, 46.2089, 427.1288 ], [ 6.2135, 46.2123, 426.9179 ], [ 6.2208, 46.212, 428.5629 ], [ 6.2232, 46.2144, 430.0078 ], [ 6.221, 46.227, 455.7254 ], [ 6.2115, 46.2294, 457.3746 ], [ 6.2065, 46.2343, 467.2763 ], [ 6.1927, 46.2215, 492.8353 ], [ 6.1975, 46.2103, 431.4926 ], [ 6.2052, 46.2089, 427.1288 ] ] ] ] } },
{ "type": "Feature", "properties": { "COMMUNE_NAME": "Genève" }, "geometry": { "type": "MultiPolygon", "coordinates": [ [ [ [ 6.127653, 46.187767 ], [ 6.127658253137375, 46.187767315915444 ], [ 6.127658, 46.187767 ], [ 6.127653, 46.187767 ] ] ], [ [ [ 6.127777, 46.18895 ], [ 6.127899, 46.190403 ], [ 6.1279163, 46.194645 ], [ 6.12787, 46.194733 ], [ 6.1277847, 46.19476 ], [ 6.1277003, 46.19471 ], [ 6.1269584, 46.1946 ], [ 6.1271257, 46.19537 ], [ 6.126852, 46.195404 ], [ 6.127375, 46.197094 ], [ 6.1269846, 46.197144 ], [ 6.126796, 46.197083 ], [ 6.126458, 46.19693 ], [ 6.126168, 46.196877 ], [ 6.1258664, 46.196632 ], [ 6.1257, 46.19661 ], [ 6.1255136, 46.196487 ], [ 6.1248097, 46.196312 ], [ 6.1247497, 46.19621 ], [ 6.12451, 46.196083 ], [ 6.1242576, 46.19601 ], [ 6.1240873, 46.196014 ], [ 6.12345, 46.195843 ], [ 6.122987, 46.19598 ], [ 6.1224866, 46.195972 ], [ 6.1221614, 46.196053 ], [ 6.1216183, 46.196075 ], [ 6.121553, 46.19612 ], [ 6.1215, 46.196194 ], [ 6.121721, 46.196583 ], [ 6.1215715, 46.19761 ], [ 6.1162744, 46.197067 ], [ 6.1162467, 46.197212 ], [ 6.112398, 46.196823 ], [ 6.112109, 46.19686 ], [ 6.111939, 46.196953 ], [ 6.1118355, 46.19709 ], [ 6.1114707, 46.19845 ], [ 6.111289, 46.199978 ], [ 6.111341, 46.200275 ], [ 6.1112375, 46.201565 ], [ 6.1112823, 46.201725 ], [ 6.111042, 46.201633 ], [ 6.1108932, 46.202484 ], [ 6.1107492, 46.202415 ], [ 6.110681, 46.202812 ], [ 6.110833, 46.20283 ], [ 6.1106687, 46.20376 ], [ 6.110542, 46.203926 ], [ 6.110336, 46.204967 ], [ 6.110241, 46.205566 ], [ 6.110296, 46.205807 ], [ 6.110448, 46.205948 ], [ 6.110627, 46.206005 ], [ 6.1111703, 46.2067 ], [ 6.111397, 46.20703 ], [ 6.1117406, 46.2075 ], [ 6.1124787, 46.20862 ], [ 6.1135035, 46.20962 ], [ 6.11355, 46.20961 ], [ 6.1145253, 46.21065 ], [ 6.1146183, 46.210705 ], [ 6.1147394, 46.210697 ], [ 6.1149206, 46.21095 ], [ 6.114636, 46.211075 ], [ 6.1147184, 46.211094 ], [ 6.114817, 46.2113 ], [ 6.1148744, 46.211292 ], [ 6.115668, 46.212063 ], [ 6.1161184, 46.21259 ], [ 6.116322, 46.212868 ], [ 6.116283, 46.212944 ], [ 6.117499, 46.21458 ], [ 6.1178904, 46.21515 ], [ 6.11844, 46.216022 ], [ 6.1187935, 46.21597 ], [ 6.119238, 46.21621 ], [ 6.1186585, 46.2164 ], [ 6.117218, 46.217 ], [ 6.116261, 46.217564 ], [ 6.1152143, 46.218624 ], [ 6.1146145, 46.219494 ], [ 6.11384, 46.220272 ], [ 6.113949, 46.22026 ], [ 6.1169605, 46.221775 ], [ 6.1174397, 46.22207 ], [ 6.1174455, 46.222065 ], [ 6.1176753, 46.221924 ], [ 6.1178017, 46.22202 ], [ 6.117816, 46.22216 ], [ 6.119887, 46.22351 ], [ 6.121762, 46.22484 ], [ 6.122098, 46.225143 ], [ 6.121299, 46.22584 ], [ 6.1212177, 46.22597 ], [ 6.1214433, 46.226288 ], [ 6.121896, 46.226704 ], [ 6.121988, 46.22675 ], [ 6.122069, 46.226734 ], [ 6.123258, 46.22608 ], [ 6.1242275, 46.22573 ], [ 6.125395, 46.22684 ], [ 6.1253395, 46.226868 ], [ 6.1255016, 46.22711 ], [ 6.1257887, 46.227345 ], [ 6.126178, 46.227104 ], [ 6.126784, 46.227623 ], [ 6.1269846, 46.22779 ], [ 6.127693, 46.227352 ], [ 6.128618, 46.227974 ], [ 6.1287265, 46.228054 ], [ 6.128259, 46.228363 ], [ 6.128265, 46.22853 ], [ 6.1282973, 46.228554 ], [ 6.1298714, 46.22965 ], [ 6.1301107, 46.22987 ], [ 6.130163, 46.23008 ], [ 6.13157, 46.231018 ], [ 6.1326585, 46.231663 ], [ 6.132677, 46.23167 ], [ 6.132931, 46.231747 ], [ 6.1329517, 46.231815 ], [ 6.1330814, 46.231884 ], [ 6.1340866, 46.23097 ], [ 6.1345696, 46.230667 ], [ 6.1359296, 46.230625 ], [ 6.1363463, 46.230354 ], [ 6.136611, 46.23007 ], [ 6.1369596, 46.22923 ], [ 6.1374474, 46.228493 ], [ 6.1379504, 46.22818 ], [ 6.138299, 46.228115 ], [ 6.138495, 46.228172 ], [ 6.138694, 46.22844 ], [ 6.1388235, 46.22875 ], [ 6.13887, 46.229053 ], [ 6.138828, 46.22961 ], [ 6.13854, 46.23029 ], [ 6.1402345, 46.22996 ], [ 6.1428714, 46.229298 ], [ 6.143435, 46.230633 ], [ 6.143705, 46.230095 ], [ 6.1456375, 46.22892 ], [ 6.1458898, 46.228725 ], [ 6.145981, 46.228752 ], [ 6.146804, 46.228394 ], [ 6.1490006, 46.227978 ], [ 6.1489472, 46.22779 ], [ 6.149479, 46.22766 ], [ 6.14997, 46.227554 ], [ 6.1667075, 46.224464 ], [ 6.1659327, 46.222454 ], [ 6.162745, 46.216614 ], [ 6.161907, 46.21522 ], [ 6.1723685, 46.21189 ], [ 6.1725554, 46.211597 ], [ 6.1713853, 46.211056 ], [ 6.173027, 46.20989 ], [ 6.1729183, 46.20986 ], [ 6.1732893, 46.209595 ], [ 6.17215, 46.208836 ], [ 6.1722803, 46.208744 ], [ 6.1719103, 46.208504 ], [ 6.170889, 46.207645 ], [ 6.170761, 46.206696 ], [ 6.1717367, 46.20588 ], [ 6.174215, 46.206734 ], [ 6.1748834, 46.207024 ], [ 6.174838, 46.206833 ], [ 6.174989, 46.2068 ], [ 6.175115, 46.206707 ], [ 6.1758523, 46.205784 ], [ 6.175661, 46.205814 ], [ 6.17469, 46.205185 ], [ 6.17399, 46.204464 ], [ 6.174964, 46.204014 ], [ 6.1744876, 46.203674 ], [ 6.1742325, 46.203403 ], [ 6.174151, 46.20345 ], [ 6.1733975, 46.202953 ], [ 6.17386, 46.202602 ], [ 6.1737404, 46.202473 ], [ 6.1758294, 46.201332 ], [ 6.1755476, 46.201065 ], [ 6.174325, 46.199837 ], [ 6.1742253, 46.19957 ], [ 6.174694, 46.19948 ], [ 6.1747355, 46.199436 ], [ 6.1743608, 46.198303 ], [ 6.1731505, 46.196583 ], [ 6.171245, 46.194504 ], [ 6.171343, 46.194458 ], [ 6.1714096, 46.194344 ], [ 6.17264, 46.19389 ], [ 6.1725974, 46.193806 ], [ 6.1693153, 46.19123 ], [ 6.1674614, 46.189964 ], [ 6.1673746, 46.18986 ], [ 6.1674004, 46.18961 ], [ 6.167627, 46.189056 ], [ 6.167547, 46.18897 ], [ 6.167706, 46.18813 ], [ 6.167871, 46.18726 ], [ 6.167478, 46.187466 ], [ 6.1663327, 46.187935 ], [ 6.1656547, 46.18812 ], [ 6.1647496, 46.18817 ], [ 6.1642323, 46.188118 ], [ 6.163571, 46.187973 ], [ 6.1629786, 46.18768 ], [ 6.162556, 46.187313 ], [ 6.162421, 46.18714 ], [ 6.1622753, 46.18648 ], [ 6.1622825, 46.18616 ], [ 6.162396, 46.18579 ], [ 6.162381, 46.185318 ], [ 6.1622677, 46.184906 ], [ 6.1619787, 46.184353 ], [ 6.161336, 46.18351 ], [ 6.160033, 46.181503 ], [ 6.1598234, 46.181007 ], [ 6.159722, 46.180546 ], [ 6.1596394, 46.179173 ], [ 6.1593404, 46.178673 ], [ 6.158778, 46.1782 ], [ 6.1583886, 46.17802 ], [ 6.1577435, 46.17782 ], [ 6.157231, 46.17777 ], [ 6.1564813, 46.177814 ], [ 6.155786, 46.17798 ], [ 6.1552215, 46.178223 ], [ 6.154749, 46.17854 ], [ 6.154208, 46.179157 ], [ 6.1538334, 46.17984 ], [ 6.1538763, 46.180187 ], [ 6.1545343, 46.184704 ], [ 6.154413, 46.185234 ], [ 6.154188, 46.18566 ], [ 6.153756, 46.186104 ], [ 6.153092, 46.186436 ], [ 6.1522546, 46.186615 ], [ 6.151098, 46.18665 ], [ 6.1481986, 46.186863 ], [ 6.1473036, 46.18681 ], [ 6.1459723, 46.18675 ], [ 6.1448426, 46.1868 ], [ 6.14392, 46.18693 ], [ 6.142766, 46.187344 ], [ 6.141953, 46.188 ], [ 6.141443, 46.18908 ], [ 6.139708, 46.18864 ], [ 6.139562, 46.18875 ], [ 6.137399, 46.18885 ], [ 6.1370134, 46.188805 ], [ 6.1350174, 46.190865 ], [ 6.1318507, 46.18922 ], [ 6.1315894, 46.189373 ], [ 6.1290803, 46.188095 ], [ 6.12907, 46.188023 ], [ 6.1288433, 46.187912 ], [ 6.1285343, 46.18782 ], [ 6.127658253137375, 46.187767315915444 ], [ 6.127783, 46.187923 ], [ 6.127777, 46.18895 ] ] ] ] } }
]
}
